ONEWEB-0300             
1 49089U 21075Q   25226.47808083 -.00000199  00000+0 -58920-3 0  9997
2 49089  87.8856  51.6117 0002116  87.8578 272.2792 13.12444041194973
ONEWEB-0301             
1 49090U 21075R   25226.53809052 -.00000417  00000+0 -11941-2 0  9997
2 49090  87.8851  51.6048 0002189  86.4947 273.6431 13.12441305194344
ONEWEB-0302             
1 49091U 21075S   25226.52514332  .00000115  00000+0  28332-3 0  9997
2 49091  87.8859  51.6116 0001378  90.6802 269.4485 13.12442350194326
ONEWEB-0304             
1 49092U 21075T   25226.53807381  .00000002  00000+0 -29089-4 0  9995
2 49092  87.9028  66.8851 0001727  91.5613 268.5716 13.17648243193193
ONEWEB-0305             
1 49093U 21075U   25226.53134852  .00000105  00000+0  23740-3 0  9992
2 49093  87.9029  66.8623 0001733 101.6788 258.4538 13.17648648193228
ONEWEB-0308             
1 49094U 21075V   25226.51864189  .00000181  00000+0  46681-3 0  9997
2 49094  87.8853  51.6054 0001774  88.5762 271.5570 13.12441457194332
ONEWEB-0309             
1 49095U 21075W   25226.53470745 -.00000010  00000+0 -59727-4 0  9990
2 49095  87.9027  66.8794 0001321  82.8795 277.2486 13.17648717193192
ONEWEB-0310             
1 49096U 21075X   25226.53322385 -.00000250  00000+0 -73074-3 0  9993
2 49096  87.8854  51.6482 0001642  88.9340 271.1976 13.12441110194961
